CCSDS_OMM_VERS = 2.0
CREATION_DATE  = 
ORIGINATOR     = 

OBJECT_NAME    = SHENZHOU-22
OBJECT_ID      = 2025-272A
CENTER_NAME    = EARTH
REF_FRAME      = TEME
TIME_SYSTEM    = UTC
MEAN_ELEMENT_THEORY = SGP/SGP4

EPOCH          = 2025-12-05T06:48:03.993120
MEAN_MOTION    = 15.58716050
ECCENTRICITY   = .00098342
INCLINATION    = 41.4682
RA_OF_ASC_NODE = 61.9587
ARG_OF_PERICENTER = 333.0075
MEAN_ANOMALY   = 27.0251

EPHEMERIS_TYPE = 0
CLASSIFICATION_TYPE = U
NORAD_CAT_ID   = 66645
ELEMENT_SET_NO = 999
REV_AT_EPOCH   = 26289
BSTAR          = .43162186E-3
MEAN_MOTION_DOT = .34071E-3
MEAN_MOTION_DDOT = 0

CCSDS_OMM_VERS = 2.0
CREATION_DATE  = 
ORIGINATOR     = 

OBJECT_NAME    = CZ-2F R/B
OBJECT_ID      = 2025-272B
CENTER_NAME    = EARTH
REF_FRAME      = TEME
TIME_SYSTEM    = UTC
MEAN_ELEMENT_THEORY = SGP/SGP4

EPOCH          = 2025-11-26T11:17:54.506400
MEAN_MOTION    = 16.01945612
ECCENTRICITY   = .01210796
INCLINATION    = 41.4431
RA_OF_ASC_NODE = 114.9009
ARG_OF_PERICENTER = 133.7676
MEAN_ANOMALY   = 227.3272

EPHEMERIS_TYPE = 0
CLASSIFICATION_TYPE = U
NORAD_CAT_ID   = 66646
ELEMENT_SET_NO = 999
REV_AT_EPOCH   = 21
BSTAR          = .29319366E-3
MEAN_MOTION_DOT = .449059E-2
MEAN_MOTION_DDOT = .7567612E-5

CCSDS_OMM_VERS = 2.0
CREATION_DATE  = 
ORIGINATOR     = 

OBJECT_NAME    = SOYUZ-MS 28
OBJECT_ID      = 2025-275A
CENTER_NAME    = EARTH
REF_FRAME      = TEME
TIME_SYSTEM    = UTC
MEAN_ELEMENT_THEORY = SGP/SGP4

EPOCH          = 2025-12-05T06:04:12.236160
MEAN_MOTION    = 15.49328184
ECCENTRICITY   = .00035858
INCLINATION    = 51.6297
RA_OF_ASC_NODE = 179.5463
ARG_OF_PERICENTER = 206.2517
MEAN_ANOMALY   = 153.8291

EPHEMERIS_TYPE = 0
CLASSIFICATION_TYPE = U
NORAD_CAT_ID   = 66664
ELEMENT_SET_NO = 999
REV_AT_EPOCH   = 128
BSTAR          = .2719745E-3
MEAN_MOTION_DOT = .14736E-3
MEAN_MOTION_DDOT = 0

CCSDS_OMM_VERS = 2.0
CREATION_DATE  = 
ORIGINATOR     = 

OBJECT_NAME    = 1998-067XS
OBJECT_ID      = 1998-067XS
CENTER_NAME    = EARTH
REF_FRAME      = TEME
TIME_SYSTEM    = UTC
MEAN_ELEMENT_THEORY = SGP/SGP4

EPOCH          = 2025-12-04T20:45:28.746720
MEAN_MOTION    = 15.49986178
ECCENTRICITY   = .00041746
INCLINATION    = 51.6291
RA_OF_ASC_NODE = 181.4578
ARG_OF_PERICENTER = 168.9340
MEAN_ANOMALY   = 191.1741

EPHEMERIS_TYPE = 0
CLASSIFICATION_TYPE = U
NORAD_CAT_ID   = 66906
ELEMENT_SET_NO = 999
REV_AT_EPOCH   = 39
BSTAR          = .624818E-3
MEAN_MOTION_DOT = .35352E-3
MEAN_MOTION_DDOT = 0

CCSDS_OMM_VERS = 2.0
CREATION_DATE  = 
ORIGINATOR     = 

OBJECT_NAME    = 1998-067XT
OBJECT_ID      = 1998-067XT
CENTER_NAME    = EARTH
REF_FRAME      = TEME
TIME_SYSTEM    = UTC
MEAN_ELEMENT_THEORY = SGP/SGP4

EPOCH          = 2025-12-04T14:33:58.780512
MEAN_MOTION    = 15.50135940
ECCENTRICITY   = .00051159
INCLINATION    = 51.6278
RA_OF_ASC_NODE = 182.7350
ARG_OF_PERICENTER = 181.6960
MEAN_ANOMALY   = 178.4012

EPHEMERIS_TYPE = 0
CLASSIFICATION_TYPE = U
NORAD_CAT_ID   = 66907
ELEMENT_SET_NO = 999
REV_AT_EPOCH   = 35
BSTAR          = .16214223E-2
MEAN_MOTION_DOT = .93671E-3
MEAN_MOTION_DDOT = 0

CCSDS_OMM_VERS = 2.0
CREATION_DATE  = 
ORIGINATOR     = 

OBJECT_NAME    = 1998-067XU
OBJECT_ID      = 1998-067XU
CENTER_NAME    = EARTH
REF_FRAME      = TEME
TIME_SYSTEM    = UTC
MEAN_ELEMENT_THEORY = SGP/SGP4

EPOCH          = 2025-12-04T23:50:53.483712
MEAN_MOTION    = 15.50281808
ECCENTRICITY   = .00055383
INCLINATION    = 51.6288
RA_OF_ASC_NODE = 180.8149
ARG_OF_PERICENTER = 185.3725
MEAN_ANOMALY   = 174.7205

EPHEMERIS_TYPE = 0
CLASSIFICATION_TYPE = U
NORAD_CAT_ID   = 66908
ELEMENT_SET_NO = 999
REV_AT_EPOCH   = 41
BSTAR          = .15643981E-2
MEAN_MOTION_DOT = .90804E-3
MEAN_MOTION_DDOT = 0

CCSDS_OMM_VERS = 2.0
CREATION_DATE  = 
ORIGINATOR     = 

OBJECT_NAME    = 1998-067XV
OBJECT_ID      = 1998-067XV
CENTER_NAME    = EARTH
REF_FRAME      = TEME
TIME_SYSTEM    = UTC
MEAN_ELEMENT_THEORY = SGP/SGP4

EPOCH          = 2025-12-04T23:50:52.274976
MEAN_MOTION    = 15.50264508
ECCENTRICITY   = .0005497
INCLINATION    = 51.6290
RA_OF_ASC_NODE = 180.8148
ARG_OF_PERICENTER = 185.5625
MEAN_ANOMALY   = 174.5303

EPHEMERIS_TYPE = 0
CLASSIFICATION_TYPE = U
NORAD_CAT_ID   = 66909
ELEMENT_SET_NO = 999
REV_AT_EPOCH   = 41
BSTAR          = .15898E-2
MEAN_MOTION_DOT = .92243E-3
MEAN_MOTION_DDOT = 0

CCSDS_OMM_VERS = 2.0
CREATION_DATE  = 
ORIGINATOR     = 

OBJECT_NAME    = 1998-067XW
OBJECT_ID      = 1998-067XW
CENTER_NAME    = EARTH
REF_FRAME      = TEME
TIME_SYSTEM    = UTC
MEAN_ELEMENT_THEORY = SGP/SGP4

EPOCH          = 2025-12-05T01:22:59.154240
MEAN_MOTION    = 15.50553772
ECCENTRICITY   = .0006416
INCLINATION    = 51.6287
RA_OF_ASC_NODE = 180.4926
ARG_OF_PERICENTER = 172.5367
MEAN_ANOMALY   = 187.5719

EPHEMERIS_TYPE = 0
CLASSIFICATION_TYPE = U
NORAD_CAT_ID   = 66910
ELEMENT_SET_NO = 999
REV_AT_EPOCH   = 42
BSTAR          = .14713E-2
MEAN_MOTION_DOT = .86166E-3
MEAN_MOTION_DDOT = 0

CCSDS_OMM_VERS = 2.0
CREATION_DATE  = 
ORIGINATOR     = 

OBJECT_NAME    = 1998-067XX
OBJECT_ID      = 1998-067XX
CENTER_NAME    = EARTH
REF_FRAME      = TEME
TIME_SYSTEM    = UTC
MEAN_ELEMENT_THEORY = SGP/SGP4

EPOCH          = 2025-12-05T01:22:57.118656
MEAN_MOTION    = 15.50597834
ECCENTRICITY   = .0006353
INCLINATION    = 51.6287
RA_OF_ASC_NODE = 180.4927
ARG_OF_PERICENTER = 172.5612
MEAN_ANOMALY   = 187.5473

EPHEMERIS_TYPE = 0
CLASSIFICATION_TYPE = U
NORAD_CAT_ID   = 66911
ELEMENT_SET_NO = 999
REV_AT_EPOCH   = 41
BSTAR          = .1631828E-2
MEAN_MOTION_DOT = .95888E-3
MEAN_MOTION_DDOT = 0

CCSDS_OMM_VERS = 2.0
CREATION_DATE  = 
ORIGINATOR     = 

OBJECT_NAME    = 1998-067XY
OBJECT_ID      = 1998-067XY
CENTER_NAME    = EARTH
REF_FRAME      = TEME
TIME_SYSTEM    = UTC
MEAN_ELEMENT_THEORY = SGP/SGP4

EPOCH          = 2025-12-04T20:45:22.504320
MEAN_MOTION    = 15.50112041
ECCENTRICITY   = .00053164
INCLINATION    = 51.6281
RA_OF_ASC_NODE = 181.4549
ARG_OF_PERICENTER = 183.1842
MEAN_ANOMALY   = 176.9114

EPHEMERIS_TYPE = 0
CLASSIFICATION_TYPE = U
NORAD_CAT_ID   = 66912
ELEMENT_SET_NO = 999
REV_AT_EPOCH   = 38
BSTAR          = .12051689E-2
MEAN_MOTION_DOT = .69233E-3
MEAN_MOTION_DDOT = 0

