SHENZHOU-22             
1 66645U 25272A   25339.28337955  .00034071  00000+0  43162-3 0  9992
2 66645  41.4682  61.9587 0009834 333.0075  27.0251 15.58716050262897
CZ-2F R/B               
1 66646U 25272B   25330.47076975  .00449059  75676-5  29319-3 0  9998
2 66646  41.4431 114.9009 0121079 133.7676 227.3272 16.01945612   217
SOYUZ-MS 28             
1 66664U 25275A   25339.25291940  .00014736  00000+0  27197-3 0  9992
2 66664  51.6297 179.5463 0003585 206.2517 153.8291 15.49328184  1284
1998-067XS              
1 66906U 98067XS  25338.86491605  .00035352  00000+0  62482-3 0  9999
2 66906  51.6291 181.4578 0004174 168.9340 191.1741 15.49986178   398
1998-067XT              
1 66907U 98067XT  25338.60693033  .00093671  00000+0  16214-2 0  9990
2 66907  51.6278 182.7350 0005115 181.6960 178.4012 15.50135940   352
1998-067XU              
1 66908U 98067XU  25338.99367458  .00090804  00000+0  15644-2 0  9993
2 66908  51.6288 180.8149 0005538 185.3725 174.7205 15.50281808   413
1998-067XV              
1 66909U 98067XV  25338.99366059  .00092243  00000+0  15898-2 0  9990
2 66909  51.6290 180.8148 0005497 185.5625 174.5303 15.50264508   416
1998-067XW              
1 66910U 98067XW  25339.05762910  .00086166  00000+0  14713-2 0  9998
2 66910  51.6287 180.4926 0006416 172.5367 187.5719 15.50553772   425
1998-067XX              
1 66911U 98067XX  25339.05760554  .00095888  00000+0  16318-2 0  9995
2 66911  51.6287 180.4927 0006353 172.5612 187.5473 15.50597834   413
1998-067XY              
1 66912U 98067XY  25338.86484380  .00069233  00000+0  12052-2 0  9990
2 66912  51.6281 181.4549 0005316 183.1842 176.9114 15.50112041   383
